{"type": "FeatureCollection", "features": [ {"type": "Feature", "properties": {"norad_id": 34327, "name": "COSMOS 2251 DEB", "group": "cosmos-2251-debris", "lat": -65.59160917287502, "lon": 137.48639196250753, "alt_km": 597.948288862488, "timestamp": "2025-12-10T07:43:55.173265+00:00", "meta": {"OBJECT_NAME": "COSMOS 2251 DEB", "OBJECT_ID": "1993-036NZ", "EPOCH": "2025-12-09T00:29:52.198656", "MEAN_MOTION": 14.89049096, "ECCENTRICITY": 0.00325658, "INCLINATION": 73.9933, "RA_OF_ASC_NODE": 179.3336, "ARG_OF_PERICENTER": 356.457, "MEAN_ANOMALY": 159.0682, "EPHEMERIS_TYPE": 0, "CLASSIFICATION_TYPE": "U", "NORAD_CAT_ID": 34327, "ELEMENT_SET_NO": 999, "REV_AT_EPOCH": 89452, "BSTAR": 0.0012954373, "MEAN_MOTION_DOT": 0.00012309, "MEAN_MOTION_DDOT": 0}, "tle": {"line1": "1 34327U 93036NZ  25343.02074304  .00012309  00000+0  12954-2 0  9994", "line2": "2 34327  73.9933 179.3336 0032565 356.4570 159.0682 14.89049096894527"}}, "geometry": {"type": "Point", "coordinates": [137.48639196250753, -65.59160917287502]}}, {"type": "Feature", "properties": {"norad_id": 34340, "name": "COSMOS 2251 DEB", "group": "cosmos-2251-debris", "lat": -44.19498744485862, "lon": -64.08664217713076, "alt_km": 1026.230785089664, "timestamp": "2025-12-10T07:43:55.173275+00:00", "meta": {"OBJECT_NAME": "COSMOS 2251 DEB", "OBJECT_ID": "1993-036PN", "EPOCH": "2025-12-09T17:07:58.321344", "MEAN_MOTION": 13.79553817, "ECCENTRICITY": 0.0282303, "INCLINATION": 74.0796, "RA_OF_ASC_NODE": 313.0404, "ARG_OF_PERICENTER": 61.5592, "MEAN_ANOMALY": 115.2868, "EPHEMERIS_TYPE": 0, "CLASSIFICATION_TYPE": "U", "NORAD_CAT_ID": 34340, "ELEMENT_SET_NO": 999, "REV_AT_EPOCH": 84226, "BSTAR": 0.0019058, "MEAN_MOTION_DOT": 2.628e-05, "MEAN_MOTION_DDOT": 0}, "tle": {"line1": "1 34340U 93036PN  25343.71386946  .00002628  00000+0  19058-2 0  9998", "line2": "2 34340  74.0796 313.0404 0282303  61.5592 115.2868 13.79553817842262"}}, "geometry": {"type": "Point", "coordinates": [-64.08664217713076, -44.19498744485862]}}, {"type": "Feature", "properties": {"norad_id": 34343, "name": "COSMOS 2251 DEB", "group": "cosmos-2251-debris", "lat": -30.398458280295383, "lon": 84.5640005972298, "alt_km": 656.5089498109201, "timestamp": "2025-12-10T07:43:55.173285+00:00", "meta": {"OBJECT_NAME": "COSMOS 2251 DEB", "OBJECT_ID": "1993-036PR", "EPOCH": "2025-12-09T17:51:01.655424", "MEAN_MOTION": 14.69354388, "ECCENTRICITY": 0.0023117, "INCLINATION": 74.0201, "RA_OF_ASC_NODE": 95.3629, "ARG_OF_PERICENTER": 11.1264, "MEAN_ANOMALY": 139.1094, "EPHEMERIS_TYPE": 0, "CLASSIFICATION_TYPE": "U", "NORAD_CAT_ID": 34343, "ELEMENT_SET_NO": 999, "REV_AT_EPOCH": 88686, "BSTAR": 0.0023858, "MEAN_MOTION_DOT": 0.00014156, "MEAN_MOTION_DDOT": 0}, "tle": {"line1": "1 34343U 93036PR  25343.74376916  .00014156  00000+0  23858-2 0  9992", "line2": "2 34343  74.0201  95.3629 0023117  11.1264 139.1094 14.69354388886860"}}, "geometry": {"type": "Point", "coordinates": [84.5640005972298, -30.398458280295383]}}, {"type": "Feature", "properties": {"norad_id": 34344, "name": "COSMOS 2251 DEB", "group": "cosmos-2251-debris", "lat": 10.301063566144238, "lon": -68.3303127621017, "alt_km": 910.2604317397781, "timestamp": "2025-12-10T07:43:55.173295+00:00", "meta": {"OBJECT_NAME": "COSMOS 2251 DEB", "OBJECT_ID": "1993-036PS", "EPOCH": "2025-12-09T19:46:59.411136", "MEAN_MOTION": 14.16375224, "ECCENTRICITY": 0.0155728, "INCLINATION": 73.9797, "RA_OF_ASC_NODE": 115.5512, "ARG_OF_PERICENTER": 300.3572, "MEAN_ANOMALY": 212.5749, "EPHEMERIS_TYPE": 0, "CLASSIFICATION_TYPE": "U", "NORAD_CAT_ID": 34344, "ELEMENT_SET_NO": 999, "REV_AT_EPOCH": 86055, "BSTAR": 0.0025674, "MEAN_MOTION_DOT": 5.717e-05, "MEAN_MOTION_DDOT": 0}, "tle": {"line1": "1 34344U 93036PS  25343.82429874  .00005717  00000+0  25674-2 0  9995", "line2": "2 34344  73.9797 115.5512 0155728 300.3572 212.5749 14.16375224860559"}}, "geometry": {"type": "Point", "coordinates": [-68.3303127621017, 10.301063566144238]}}, {"type": "Feature", "properties": {"norad_id": 34346, "name": "COSMOS 2251 DEB", "group": "cosmos-2251-debris", "lat": 61.343838142295574, "lon": -11.87710014062605, "alt_km": 834.5328131896749, "timestamp": "2025-12-10T07:43:55.173316+00:00", "meta": {"OBJECT_NAME": "COSMOS 2251 DEB", "OBJECT_ID": "1993-036PU", "EPOCH": "2025-12-09T09:42:38.152800", "MEAN_MOTION": 13.9967692, "ECCENTRICITY": 0.02063467, "INCLINATION": 73.9954, "RA_OF_ASC_NODE": 318.0332, "ARG_OF_PERICENTER": 137.7544, "MEAN_ANOMALY": 348.7735, "EPHEMERIS_TYPE": 0, "CLASSIFICATION_TYPE": "U", "NORAD_CAT_ID": 34346, "ELEMENT_SET_NO": 999, "REV_AT_EPOCH": 85363, "BSTAR": 0.0013127855, "MEAN_MOTION_DOT": 2.284e-05, "MEAN_MOTION_DDOT": 0}, "tle": {"line1": "1 34346U 93036PU  25343.40460825  .00002284  00000+0  13128-2 0  9999", "line2": "2 34346  73.9954 318.0332 0206346 137.7544 348.7735 13.99676920853635"}}, "geometry": {"type": "Point", "coordinates": [-11.87710014062605, 61.343838142295574]}}, {"type": "Feature", "properties": {"norad_id": 34383, "name": "COSMOS 2251 DEB", "group": "cosmos-2251-debris", "lat": 35.07212437690442, "lon": -45.707942367970844, "alt_km": 536.0094174460282, "timestamp": "2025-12-10T07:43:55.173327+00:00", "meta": {"OBJECT_NAME": "COSMOS 2251 DEB", "OBJECT_ID": "1993-036PY", "EPOCH": "2025-12-09T14:34:45.280128", "MEAN_MOTION": 15.08535731, "ECCENTRICITY": 0.0002456, "INCLINATION": 74.023, "RA_OF_ASC_NODE": 304.1601, "ARG_OF_PERICENTER": 36.8351, "MEAN_ANOMALY": 80.1685, "EPHEMERIS_TYPE": 0, "CLASSIFICATION_TYPE": "U", "NORAD_CAT_ID": 34383, "ELEMENT_SET_NO": 999, "REV_AT_EPOCH": 89066, "BSTAR": 0.0044405, "MEAN_MOTION_DOT": 0.00069993, "MEAN_MOTION_DDOT": 0}, "tle": {"line1": "1 34383U 93036PY  25343.60746852  .00069993  00000+0  44405-2 0  9991", "line2": "2 34383  74.0230 304.1601 0002456  36.8351  80.1685 15.08535731890662"}}, "geometry": {"type": "Point", "coordinates": [-45.707942367970844, 35.07212437690442]}}, {"type": "Feature", "properties": {"norad_id": 34387, "name": "COSMOS 2251 DEB", "group": "cosmos-2251-debris", "lat": 1.7071811919354318, "lon": 35.900364991818925, "alt_km": 767.9701290565536, "timestamp": "2025-12-10T07:43:55.173400+00:00", "meta": {"OBJECT_NAME": "COSMOS 2251 DEB", "OBJECT_ID": "1993-036QC", "EPOCH": "2025-12-09T03:21:41.241024", "MEAN_MOTION": 14.43807825, "ECCENTRICITY": 0.00387286, "INCLINATION": 74.0395, "RA_OF_ASC_NODE": 218.5855, "ARG_OF_PERICENTER": 316.1348, "MEAN_ANOMALY": 200.5275, "EPHEMERIS_TYPE": 0, "CLASSIFICATION_TYPE": "U", "NORAD_CAT_ID": 34387, "ELEMENT_SET_NO": 999, "REV_AT_EPOCH": 88129, "BSTAR": 0.00043015077, "MEAN_MOTION_DOT": 1.451e-05, "MEAN_MOTION_DDOT": 0}, "tle": {"line1": "1 34387U 93036QC  25343.14006066  .00001451  00000+0  43015-3 0  9992", "line2": "2 34387  74.0395 218.5855 0038728 316.1348 200.5275 14.43807825881294"}}, "geometry": {"type": "Point", "coordinates": [35.900364991818925, 1.7071811919354318]}}, {"type": "Feature", "properties": {"norad_id": 34388, "name": "COSMOS 2251 DEB", "group": "cosmos-2251-debris", "lat": 62.40652073048432, "lon": 14.436928499029342, "alt_km": 730.9677435432568, "timestamp": "2025-12-10T07:43:55.173413+00:00", "meta": {"OBJECT_NAME": "COSMOS 2251 DEB", "OBJECT_ID": "1993-036QD", "EPOCH": "2025-12-09T16:26:43.450368", "MEAN_MOTION": 14.49341247, "ECCENTRICITY": 0.0014145, "INCLINATION": 74.0389, "RA_OF_ASC_NODE": 228.8334, "ARG_OF_PERICENTER": 277.2072, "MEAN_ANOMALY": 113.6273, "EPHEMERIS_TYPE": 0, "CLASSIFICATION_TYPE": "U", "NORAD_CAT_ID": 34388, "ELEMENT_SET_NO": 999, "REV_AT_EPOCH": 88111, "BSTAR": 0.0011123, "MEAN_MOTION_DOT": 4.229e-05, "MEAN_MOTION_DDOT": 0}, "tle": {"line1": "1 34388U 93036QD  25343.68522512  .00004229  00000+0  11123-2 0  9991", "line2": "2 34388  74.0389 228.8334 0014145 277.2072 113.6273 14.49341247881112"}}, "geometry": {"type": "Point", "coordinates": [14.436928499029342, 62.40652073048432]}}, {"type": "Feature", "properties": {"norad_id": 34389, "name": "COSMOS 2251 DEB", "group": "cosmos-2251-debris", "lat": -22.374262115957, "lon": 81.07217096719847, "alt_km": 778.142709949755, "timestamp": "2025-12-10T07:43:55.173423+00:00", "meta": {"OBJECT_NAME": "COSMOS 2251 DEB", "OBJECT_ID": "1993-036QE", "EPOCH": "2025-12-09T04:40:56.277984", "MEAN_MOTION": 14.41518195, "ECCENTRICITY": 0.00287404, "INCLINATION": 74.0195, "RA_OF_ASC_NODE": 256.3866, "ARG_OF_PERICENTER": 9.087, "MEAN_ANOMALY": 107.6825, "EPHEMERIS_TYPE": 0, "CLASSIFICATION_TYPE": "U", "NORAD_CAT_ID": 34389, "ELEMENT_SET_NO": 999, "REV_AT_EPOCH": 87961, "BSTAR": 0.00056729856, "MEAN_MOTION_DOT": 1.826e-05, "MEAN_MOTION_DDOT": 0}, "tle": {"line1": "1 34389U 93036QE  25343.19509581  .00001826  00000+0  56730-3 0  9993", "line2": "2 34389  74.0195 256.3866 0028740   9.0870 107.6825 14.41518195879615"}}, "geometry": {"type": "Point", "coordinates": [81.07217096719847, -22.374262115957]}}, {"type": "Feature", "properties": {"norad_id": 34396, "name": "COSMOS 2251 DEB", "group": "cosmos-2251-debris", "lat": -21.269560017074102, "lon": -44.84439283545698, "alt_km": 648.4478036216033, "timestamp": "2025-12-10T07:43:55.173433+00:00", "meta": {"OBJECT_NAME": "COSMOS 2251 DEB", "OBJECT_ID": "1993-036QM", "EPOCH": "2025-12-09T16:13:21.482112", "MEAN_MOTION": 14.74273504, "ECCENTRICITY": 0.0006498, "INCLINATION": 74.029, "RA_OF_ASC_NODE": 130.0162, "ARG_OF_PERICENTER": 171.4572, "MEAN_ANOMALY": 202.1967, "EPHEMERIS_TYPE": 0, "CLASSIFICATION_TYPE": "U", "NORAD_CAT_ID": 34396, "ELEMENT_SET_NO": 999, "REV_AT_EPOCH": 88301, "BSTAR": 0.0035337, "MEAN_MOTION_DOT": 0.00023436, "MEAN_MOTION_DDOT": 0}, "tle": {"line1": "1 34396U 93036QM  25343.67594308  .00023436  00000+0  35337-2 0  9995", "line2": "2 34396  74.0290 130.0162 0006498 171.4572 202.1967 14.74273504883010"}}, "geometry": {"type": "Point", "coordinates": [-44.84439283545698, -21.269560017074102]}}]}